IRIDIUM 112             
1 41925U 17003J   25105.52228755  .00000210  00000+0  67878-4 0  9993
2 41925  86.3914 266.9677 0002219  89.3433 270.8017 14.34220375432006
IRIDIUM 111             
1 41926U 17003K   25105.50960425  .00000214  00000+0  69195-4 0  9997
2 41926  86.3916 267.0345 0001979  95.6998 264.4423 14.34217143432022
IRIDIUM 113             
1 42803U 17039A   25105.55934313 -.00000057  00000+0 -27575-4 0  9996
2 42803  86.3975 140.9337 0002277  86.7540 273.3916 14.34217245409896
IRIDIUM 123             
1 42804U 17039B   25105.18220996  .00000213  00000+0  69132-4 0  9998
2 42804  86.4027 172.5225 0001996  99.3221 260.8201 14.34217828408609
IRIDIUM 120             
1 42805U 17039C   25104.64600858  .00000236  00000+0  77330-4 0  9992
2 42805  86.3959 141.1535 0002232 102.2394 257.9052 14.34217750409750
IRIDIUM 115             
1 42806U 17039D   25104.37666180  .00000659  00000+0  18997-3 0  9995
2 42806  86.4498 141.3359 0001605 100.1141 260.0241 14.43275581412414
IRIDIUM 118             
1 42807U 17039E   25104.93484932  .00000014  00000+0 -22219-5 0  9991
2 42807  86.4030 172.6255 0002219  93.6531 266.4918 14.34217657408562
IRIDIUM 117             
1 42808U 17039F   25104.74457087  .00000492  00000+0  16865-3 0  9999
2 42808  86.4027 172.6668 0001928  94.3272 265.8144 14.34218479408560
